{
  "type": "FeatureCollection",
  "features": [
    {
      "type": "Feature",
      "properties": {
        "norad_id": 41384,
        "name": "IRNSS-1F",
        "group": "gnss",
        "lat": 0.23025786329533401,
        "lon": 103.83943522980825,
        "alt_km": 35881.34462270005,
        "timestamp": "2025-12-08T23:34:04.211891+00:00",
        "meta_object_name": "IRNSS-1F",
        "meta_object_id": "2016-015A",
        "meta_epoch": "2025-12-08T13:45:28.859616",
        "meta_mean_motion": 1.00270316,
        "meta_eccentricity": 0.00224613,
        "meta_inclination": 4.8701,
        "meta_ra_of_asc_node": 101.4031,
        "meta_arg_of_pericenter": 180.1387,
        "meta_mean_anomaly": 34.7689,
        "meta_ephemeris_type": 0,
        "meta_classification_type": "U",
        "meta_norad_cat_id": 41384,
        "meta_element_set_no": 999,
        "meta_rev_at_epoch": 3575,
        "meta_bstar": 0,
        "meta_mean_motion_dot": 1.6e-06,
        "meta_mean_motion_ddot": 0,
        "tle_line1": "1 41384U 16015A   25342.57325069  .00000160  00000+0  00000+0 0  9991",
        "tle_line2": "2 41384   4.8701 101.4031 0022461 180.1387  34.7689  1.00270316 35752"
      },
      "geometry": {
        "type": "Point",
        "coordinates": [
          103.83943522980825,
          0.23025786329533401
        ]
      }
    },
    {
      "type": "Feature",
      "properties": {
        "norad_id": 41434,
        "name": "BEIDOU-2 IGSO-6 (C13)",
        "group": "gnss",
        "lat": 47.01242110673539,
        "lon": -178.34883419804083,
        "alt_km": 35865.97461549383,
        "timestamp": "2025-12-08T23:34:04.211905+00:00",
        "meta_object_name": "BEIDOU-2 IGSO-6 (C13)",
        "meta_object_id": "2016-021A",
        "meta_epoch": "2025-12-01T15:57:35.287200",
        "meta_mean_motion": 1.00256562,
        "meta_eccentricity": 0.00591323,
        "meta_inclination": 59.9483,
        "meta_ra_of_asc_node": 40.0119,
        "meta_arg_of_pericenter": 231.2834,
        "meta_mean_anomaly": 130.8807,
        "meta_ephemeris_type": 0,
        "meta_classification_type": "U",
        "meta_norad_cat_id": 41434,
        "meta_element_set_no": 999,
        "meta_rev_at_epoch": 3550,
        "meta_bstar": 0,
        "meta_mean_motion_dot": -1.55e-06,
        "meta_mean_motion_ddot": 0,
        "tle_line1": "1 41434U 16021A   25335.66499175 -.00000155  00000+0  00000+0 0  9991",
        "tle_line2": "2 41434  59.9483  40.0119 0059132 231.2834 130.8807  1.00256562 35501"
      },
      "geometry": {
        "type": "Point",
        "coordinates": [
          -178.34883419804083,
          47.01242110673539
        ]
      }
    },
    {
      "type": "Feature",
      "properties": {
        "norad_id": 41469,
        "name": "IRNSS-1G",
        "group": "gnss",
        "lat": 4.658909220715731,
        "lon": -159.15432735636537,
        "alt_km": 35801.77910847082,
        "timestamp": "2025-12-08T23:34:04.211919+00:00",
        "meta_object_name": "IRNSS-1G",
        "meta_object_id": "2016-027A",
        "meta_epoch": "2025-12-08T14:13:11.205984",
        "meta_mean_motion": 1.00251349,
        "meta_eccentricity": 0.00046383,
        "meta_inclination": 4.7228,
        "meta_ra_of_asc_node": 102.2064,
        "meta_arg_of_pericenter": 336.2118,
        "meta_mean_anomaly": 341.7734,
        "meta_ephemeris_type": 0,
        "meta_classification_type": "U",
        "meta_norad_cat_id": 41469,
        "meta_element_set_no": 999,
        "meta_rev_at_epoch": 3526,
        "meta_bstar": 0,
        "meta_mean_motion_dot": -3.35e-06,
        "meta_mean_motion_ddot": 0,
        "tle_line1": "1 41469U 16027A   25342.59249081 -.00000335  00000+0  00000+0 0  9994",
        "tle_line2": "2 41469   4.7228 102.2064 0004638 336.2118 341.7734  1.00251349 35269"
      },
      "geometry": {
        "type": "Point",
        "coordinates": [
          -159.15432735636537,
          4.658909220715731
        ]
      }
    },
    {
      "type": "Feature",
      "properties": {
        "norad_id": 41549,
        "name": "GSAT0211 (GALILEO 14)",
        "group": "gnss",
        "lat": 26.86649941507977,
        "lon": 26.2891236395098,
        "alt_km": 23226.99297389875,
        "timestamp": "2025-12-08T23:34:04.211932+00:00",
        "meta_object_name": "GSAT0211 (GALILEO 14)",
        "meta_object_id": "2016-030A",
        "meta_epoch": "2025-12-07T13:40:58.264320",
        "meta_mean_motion": 1.70472997,
        "meta_eccentricity": 0.00040128,
        "meta_inclination": 55.154,
        "meta_ra_of_asc_node": 226.9659,
        "meta_arg_of_pericenter": 14.4678,
        "meta_mean_anomaly": 345.6377,
        "meta_ephemeris_type": 0,
        "meta_classification_type": "U",
        "meta_norad_cat_id": 41549,
        "meta_element_set_no": 999,
        "meta_rev_at_epoch": 5940,
        "meta_bstar": 0,
        "meta_mean_motion_dot": 2.3e-07,
        "meta_mean_motion_ddot": 0,
        "tle_line1": "1 41549U 16030A   25341.57011880  .00000023  00000+0  00000+0 0  9991",
        "tle_line2": "2 41549  55.1540 226.9659 0004012  14.4678 345.6377  1.70472997 59400"
      },
      "geometry": {
        "type": "Point",
        "coordinates": [
          26.2891236395098,
          26.86649941507977
        ]
      }
    },
    {
      "type": "Feature",
      "properties": {
        "norad_id": 41550,
        "name": "GSAT0210 (GALILEO 13)",
        "group": "gnss",
        "lat": -9.392561084350803,
        "lon": -139.67714007657816,
        "alt_km": 23224.733297159146,
        "timestamp": "2025-12-08T23:34:04.211944+00:00",
        "meta_object_name": "GSAT0210 (GALILEO 13)",
        "meta_object_id": "2016-030B",
        "meta_epoch": "2025-12-07T19:51:37.971648",
        "meta_mean_motion": 1.70473554,
        "meta_eccentricity": 0.00013454,
        "meta_inclination": 55.1532,
        "meta_ra_of_asc_node": 226.9569,
        "meta_arg_of_pericenter": 243.5769,
        "meta_mean_anomaly": 116.5022,
        "meta_ephemeris_type": 0,
        "meta_classification_type": "U",
        "meta_norad_cat_id": 41550,
        "meta_element_set_no": 999,
        "meta_rev_at_epoch": 5940,
        "meta_bstar": 0,
        "meta_mean_motion_dot": 2.1e-07,
        "meta_mean_motion_ddot": 0,
        "tle_line1": "1 41550U 16030B   25341.82752282  .00000021  00000+0  00000+0 0  9997",
        "tle_line2": "2 41550  55.1532 226.9569 0001345 243.5769 116.5022  1.70473554 59407"
      },
      "geometry": {
        "type": "Point",
        "coordinates": [
          -139.67714007657816,
          -9.392561084350803
        ]
      }
    },
    {
      "type": "Feature",
      "properties": {
        "norad_id": 41586,
        "name": "BEIDOU-2 G7 (C03)",
        "group": "gnss",
        "lat": 1.5873702992368515,
        "lon": -177.97704077162797,
        "alt_km": 35794.316278129016,
        "timestamp": "2025-12-08T23:34:04.211956+00:00",
        "meta_object_name": "BEIDOU-2 G7 (C03)",
        "meta_object_id": "2016-037A",
        "meta_epoch": "2025-12-08T14:07:49.219968",
        "meta_mean_motion": 1.00269211,
        "meta_eccentricity": 0.00044548,
        "meta_inclination": 1.7469,
        "meta_ra_of_asc_node": 67.7603,
        "meta_arg_of_pericenter": 0.1596,
        "meta_mean_anomaly": 332.1013,
        "meta_ephemeris_type": 0,
        "meta_classification_type": "U",
        "meta_norad_cat_id": 41586,
        "meta_element_set_no": 999,
        "meta_rev_at_epoch": 497,
        "meta_bstar": 0,
        "meta_mean_motion_dot": -3.51e-06,
        "meta_mean_motion_ddot": 0,
        "tle_line1": "1 41586U 16037A   25342.58876412 -.00000351  00000+0  00000+0 0  9996",
        "tle_line2": "2 41586   1.7469  67.7603 0004454   0.1596 332.1013  1.00269211  4975"
      },
      "geometry": {
        "type": "Point",
        "coordinates": [
          -177.97704077162797,
          1.5873702992368515
        ]
      }
    },
    {
      "type": "Feature",
      "properties": {
        "norad_id": 41589,
        "name": "EUTELSAT 117 WEST B (WAAS/PRN 131)",
        "group": "gnss",
        "lat": 0.004198823696219102,
        "lon": -45.506832770985554,
        "alt_km": 35787.68062428518,
        "timestamp": "2025-12-08T23:34:04.211970+00:00",
        "meta_object_name": "EUTELSAT 117 WEST B (WAAS/PRN 131)",
        "meta_object_id": "2016-038B",
        "meta_epoch": "2025-12-08T13:15:20.452320",
        "meta_mean_motion": 1.00270251,
        "meta_eccentricity": 3.593e-05,
        "meta_inclination": 0.0079,
        "meta_ra_of_asc_node": 142.3088,
        "meta_arg_of_pericenter": 313.5453,
        "meta_mean_anomaly": 63.5421,
        "meta_ephemeris_type": 0,
        "meta_classification_type": "U",
        "meta_norad_cat_id": 41589,
        "meta_element_set_no": 999,
        "meta_rev_at_epoch": 3475,
        "meta_bstar": 0,
        "meta_mean_motion_dot": -9e-08,
        "meta_mean_motion_ddot": 0,
        "tle_line1": "1 41589U 16038B   25342.55232005 -.00000009  00000+0  00000+0 0  9991",
        "tle_line2": "2 41589   0.0079 142.3088 0000359 313.5453  63.5421  1.00270251 34750"
      },
      "geometry": {
        "type": "Point",
        "coordinates": [
          -45.506832770985554,
          0.004198823696219102
        ]
      }
    }
  ]
}